ONEWEB-0153             
1 48044U 21025C   24074.16253520 -.00000255  00000+0 -73445-3 0  9990
2 48044  87.8945 124.4611 0001924 101.1863 258.9482 13.13469665145246
ONEWEB-0154             
1 48045U 21025D   24074.38789468 -.00000246  00000+0 -70845-3 0  9991
2 48045  87.8940 124.4306 0001962  98.2140 261.9212 13.13468606145248
ONEWEB-0116             
1 48046U 21025E   24074.20062521  .00000320  00000+0  84163-3 0  9996
2 48046  87.8944 124.4337 0002058  92.2965 267.8400 13.13468579145358
ONEWEB-0150             
1 48047U 21025F   24074.17522870 -.00000172  00000+0 -50625-3 0  9994
2 48047  87.8936 124.4632 0002074 102.6151 257.5210 13.13469514145242
ONEWEB-0107             
1 48048U 21025G   24074.17681894 -.00000125  00000+0 -37715-3 0  9990
2 48048  87.8936 124.4609 0002087 108.0442 252.0915 13.13469383145228
ONEWEB-0101             
1 48049U 21025H   24074.36885102  .00000194  00000+0  49538-3 0  9990
2 48049  87.8943 124.4334 0001868  99.6585 260.4755 13.13468061145228
ONEWEB-0113             
1 48050U 21025J   24074.19427658  .00000211  00000+0  54403-3 0  9998
2 48050  87.8944 124.4507 0002060  93.6096 266.5269 13.13468636145280
ONEWEB-0112             
1 48051U 21025K   24074.18157892 -.00000020  00000+0 -90466-4 0  9998
2 48051  87.8936 124.4579 0002087  99.2257 260.9108 13.13469651145290
